[
    {
        "Altitude(m)": 624790.7739087713,
        "Argument of Periapsis(deg)": 0.0,
        "Eccentricity": 0.0,
        "Inclination(deg)": 60.0,
        "Latitude(deg)": -59.14705146152207,
        "Longitude(deg)": 66.03470821406378,
        "Mean Anomaly(deg)": -81.81819999999996,
        "RAAN(deg)": 240.0,
        "Satellite Name": "Test1 1073",
        "Satellite Number": 1073,
        "Semi-Major Axis(m)": 6980739.136638005,
        "Time(s)": 0
    },
    {
        "Altitude(m)": 624737.4285260382,
        "Argument of Periapsis(deg)": 0.00010418945913296404,
        "Eccentricity": 0.0,
        "Inclination(deg)": 60.0,
        "Latitude(deg)": -58.994505418548464,
        "Longitude(deg)": 67.15420753641506,
        "Mean Anomaly(deg)": -81.1980938545381,
        "RAAN(deg)": 239.99957995086024,
        "Satellite Name": "Test1 1073",
        "Satellite Number": 1073,
        "Semi-Major Axis(m)": 6980739.136638005,
        "Time(s)": 10
    }
]